{
  "type": "FeatureCollection",
  "features": [
    {
      "type": "Feature",
      "properties": {
        "norad_id": 67046,
        "name": "STARLINK-35721",
        "group": "last-30-days",
        "lat": 2.0682178698806943,
        "lon": 131.32436687052595,
        "alt_km": 314.4554618751981,
        "timestamp": "2025-12-21T09:37:21.375328+00:00",
        "meta_object_name": "STARLINK-35721",
        "meta_object_id": "2025-294S",
        "meta_epoch": "2025-12-21T04:00:01.998720",
        "meta_mean_motion": 15.86261423,
        "meta_eccentricity": 0.0001615,
        "meta_inclination": 43.0005,
        "meta_ra_of_asc_node": 130.5478,
        "meta_arg_of_pericenter": 275.6486,
        "meta_mean_anomaly": 188.4203,
        "meta_ephemeris_type": 0,
        "meta_classification_type": "U",
        "meta_norad_cat_id": 67046,
        "meta_element_set_no": 999,
        "meta_rev_at_epoch": 166,
        "meta_bstar": -0.006512,
        "meta_mean_motion_dot": -0.01487737,
        "meta_mean_motion_ddot": 0,
        "tle_line1": "1 67046U 25294S   25355.16668980 -.01487737  00000+0 -65120-2 0  9993",
        "tle_line2": "2 67046  43.0005 130.5478 0001615 275.6486 188.4203 15.86261423  1663"
      },
      "geometry": {
        "type": "Point",
        "coordinates": [
          131.32436687052595,
          2.0682178698806943
        ]
      }
    },
    {
      "type": "Feature",
      "properties": {
        "norad_id": 67047,
        "name": "STARLINK-35779",
        "group": "last-30-days",
        "lat": 3.804708525650778,
        "lon": 133.18971952413827,
        "alt_km": 314.26895279875225,
        "timestamp": "2025-12-21T09:37:21.375338+00:00",
        "meta_object_name": "STARLINK-35779",
        "meta_object_id": "2025-294T",
        "meta_epoch": "2025-12-21T04:00:01.998720",
        "meta_mean_motion": 15.86291251,
        "meta_eccentricity": 0.0001645,
        "meta_inclination": 43.0003,
        "meta_ra_of_asc_node": 130.5417,
        "meta_arg_of_pericenter": 274.7351,
        "meta_mean_anomaly": 191.8674,
        "meta_ephemeris_type": 0,
        "meta_classification_type": "U",
        "meta_norad_cat_id": 67047,
        "meta_element_set_no": 999,
        "meta_rev_at_epoch": 147,
        "meta_bstar": -0.0066783,
        "meta_mean_motion_dot": -0.01523242,
        "meta_mean_motion_ddot": 0,
        "tle_line1": "1 67047U 25294T   25355.16668980 -.01523242  00000+0 -66783-2 0  9992",
        "tle_line2": "2 67047  43.0003 130.5417 0001645 274.7351 191.8674 15.86291251  1470"
      },
      "geometry": {
        "type": "Point",
        "coordinates": [
          133.18971952413827,
          3.804708525650778
        ]
      }
    },
    {
      "type": "Feature",
      "properties": {
        "norad_id": 67048,
        "name": "STARLINK-35905",
        "group": "last-30-days",
        "lat": 5.128405154893711,
        "lon": 134.61905792115132,
        "alt_km": 314.0297254797415,
        "timestamp": "2025-12-21T09:37:21.375348+00:00",
        "meta_object_name": "STARLINK-35905",
        "meta_object_id": "2025-294U",
        "meta_epoch": "2025-12-21T04:00:01.998720",
        "meta_mean_motion": 15.86330943,
        "meta_eccentricity": 0.0001576,
        "meta_inclination": 43.0005,
        "meta_ra_of_asc_node": 130.5368,
        "meta_arg_of_pericenter": 275.6345,
        "meta_mean_anomaly": 192.8883,
        "meta_ephemeris_type": 0,
        "meta_classification_type": "U",
        "meta_norad_cat_id": 67048,
        "meta_element_set_no": 999,
        "meta_rev_at_epoch": 158,
        "meta_bstar": -0.0067679,
        "meta_mean_motion_dot": -0.01543827,
        "meta_mean_motion_ddot": 0,
        "tle_line1": "1 67048U 25294U   25355.16668980 -.01543827  00000+0 -67679-2 0  9999",
        "tle_line2": "2 67048  43.0005 130.5368 0001576 275.6345 192.8883 15.86330943  1581"
      },
      "geometry": {
        "type": "Point",
        "coordinates": [
          134.61905792115132,
          5.128405154893711
        ]
      }
    },
    {
      "type": "Feature",
      "properties": {
        "norad_id": 67049,
        "name": "STARLINK-35877",
        "group": "last-30-days",
        "lat": 6.782589913725166,
        "lon": 136.41892528929992,
        "alt_km": 313.85218111953054,
        "timestamp": "2025-12-21T09:37:21.375358+00:00",
        "meta_object_name": "STARLINK-35877",
        "meta_object_id": "2025-294V",
        "meta_epoch": "2025-12-21T04:00:01.998720",
        "meta_mean_motion": 15.86363513,
        "meta_eccentricity": 0.0001565,
        "meta_inclination": 43.0007,
        "meta_ra_of_asc_node": 130.5307,
        "meta_arg_of_pericenter": 274.6135,
        "meta_mean_anomaly": 196.3338,
        "meta_ephemeris_type": 0,
        "meta_classification_type": "U",
        "meta_norad_cat_id": 67049,
        "meta_element_set_no": 999,
        "meta_rev_at_epoch": 166,
        "meta_bstar": -0.0069765,
        "meta_mean_motion_dot": -0.01587757,
        "meta_mean_motion_ddot": 0,
        "tle_line1": "1 67049U 25294V   25355.16668980 -.01587757  00000+0 -69765-2 0  9998",
        "tle_line2": "2 67049  43.0007 130.5307 0001565 274.6135 196.3338 15.86363513  1663"
      },
      "geometry": {
        "type": "Point",
        "coordinates": [
          136.41892528929992,
          6.782589913725166
        ]
      }
    },
    {
      "type": "Feature",
      "properties": {
        "norad_id": 67050,
        "name": "STARLINK-36078",
        "group": "last-30-days",
        "lat": 8.473320877533528,
        "lon": 138.2792380430389,
        "alt_km": 312.89742563741856,
        "timestamp": "2025-12-21T09:37:21.375368+00:00",
        "meta_object_name": "STARLINK-36078",
        "meta_object_id": "2025-294W",
        "meta_epoch": "2025-12-21T04:00:01.998720",
        "meta_mean_motion": 15.85996026,
        "meta_eccentricity": 0.0002245,
        "meta_inclination": 43.0006,
        "meta_ra_of_asc_node": 130.5244,
        "meta_arg_of_pericenter": 268.5294,
        "meta_mean_anomaly": 204.9418,
        "meta_ephemeris_type": 0,
        "meta_classification_type": "U",
        "meta_norad_cat_id": 67050,
        "meta_element_set_no": 999,
        "meta_rev_at_epoch": 158,
        "meta_bstar": -0.0012938,
        "meta_mean_motion_dot": -0.00318481,
        "meta_mean_motion_ddot": 0,
        "tle_line1": "1 67050U 25294W   25355.16668980 -.00318481  00000+0 -12938-2 0  9995",
        "tle_line2": "2 67050  43.0006 130.5244 0002245 268.5294 204.9418 15.85996026  1584"
      },
      "geometry": {
        "type": "Point",
        "coordinates": [
          138.2792380430389,
          8.473320877533528
        ]
      }
    },
    {
      "type": "Feature",
      "properties": {
        "norad_id": 67051,
        "name": "STARLINK-35706",
        "group": "last-30-days",
        "lat": 10.104979898853296,
        "lon": 140.09933189113306,
        "alt_km": 313.4580687644939,
        "timestamp": "2025-12-21T09:37:21.375378+00:00",
        "meta_object_name": "STARLINK-35706",
        "meta_object_id": "2025-294X",
        "meta_epoch": "2025-12-21T04:00:01.998720",
        "meta_mean_motion": 15.86406555,
        "meta_eccentricity": 0.0001548,
        "meta_inclination": 43.0007,
        "meta_ra_of_asc_node": 130.5182,
        "meta_arg_of_pericenter": 275.5236,
        "meta_mean_anomaly": 200.3418,
        "meta_ephemeris_type": 0,
        "meta_classification_type": "U",
        "meta_norad_cat_id": 67051,
        "meta_element_set_no": 999,
        "meta_rev_at_epoch": 166,
        "meta_bstar": -0.007344,
        "meta_mean_motion_dot": -0.01663493,
        "meta_mean_motion_ddot": 0,
        "tle_line1": "1 67051U 25294X   25355.16668980 -.01663493  00000+0 -73440-2 0  9998",
        "tle_line2": "2 67051  43.0007 130.5182 0001548 275.5236 200.3418 15.86406555  1669"
      },
      "geometry": {
        "type": "Point",
        "coordinates": [
          140.09933189113306,
          10.104979898853296
        ]
      }
    },
    {
      "type": "Feature",
      "properties": {
        "norad_id": 67052,
        "name": "STARLINK-35720",
        "group": "last-30-days",
        "lat": 11.437124924251284,
        "lon": 141.60779029542707,
        "alt_km": 313.2167198978532,
        "timestamp": "2025-12-21T09:37:21.375387+00:00",
        "meta_object_name": "STARLINK-35720",
        "meta_object_id": "2025-294Y",
        "meta_epoch": "2025-12-21T04:00:01.998720",
        "meta_mean_motion": 15.86433397,
        "meta_eccentricity": 0.0001544,
        "meta_inclination": 43.0007,
        "meta_ra_of_asc_node": 130.5134,
        "meta_arg_of_pericenter": 276.7741,
        "meta_mean_anomaly": 201.0668,
        "meta_ephemeris_type": 0,
        "meta_classification_type": "U",
        "meta_norad_cat_id": 67052,
        "meta_element_set_no": 999,
        "meta_rev_at_epoch": 165,
        "meta_bstar": -0.0073952,
        "meta_mean_motion_dot": -0.01675472,
        "meta_mean_motion_ddot": 0,
        "tle_line1": "1 67052U 25294Y   25355.16668980 -.01675472  00000+0 -73952-2 0  9997",
        "tle_line2": "2 67052  43.0007 130.5134 0001544 276.7741 201.0668 15.86433397  1655"
      },
      "geometry": {
        "type": "Point",
        "coordinates": [
          141.60779029542707,
          11.437124924251284
        ]
      }
    }
  ]
}